ONEWEB-0627             
1 55168U 23004AE  25270.39882460  .00000056  00000+0  11088-3 0  9991
2 55168  87.9064  58.1500 0002141  84.5101 275.6274 13.17650044132973
ONEWEB-0628             
1 55169U 23004AF  25269.92839792 -.00000236  00000+0 -69121-3 0  9992
2 55169  87.8928  42.9461 0002128  82.4627 277.6744 13.12442999133501
ONEWEB-0629             
1 55170U 23004AG  25270.37436399  .00000057  00000+0  11237-3 0  9995
2 55170  87.9072  58.1496 0001589  82.1445 277.9867 13.17649322132979
ONEWEB-0631             
1 55171U 23004AH  25270.26494350  .00000101  00000+0  22394-3 0  9991
2 55171  87.9214  27.6395 0002220 108.7157 251.4216 13.18685625135026
ONEWEB-0709             
1 55172U 23004AJ  25270.51456625  .00000535  00000+0  14746-2 0  9995
2 55172  87.8790  73.4124 0001917 120.7751 239.3566 13.11417804131440
ONEWEB-0710             
1 55173U 23004AK  25270.38870260 -.00000641  00000+0 -16843-2 0  9996
2 55173  87.9065  58.1424 0001908  89.5261 270.6089 13.17652338132974
ONEWEB-0711             
1 55174U 23004AL  25270.48572742 -.00000443  00000+0 -12858-2 0  9994
2 55174  87.8796  73.3865 0002359  81.3572 278.7823 13.11417836131407
ONEWEB-0713             
1 55175U 23004AM  25269.74141299  .00000316  00000+0  85629-3 0  9995
2 55175  87.8788  73.5413 0001916  87.1836 272.9511 13.11420159131294
ONEWEB-0715             
1 55176U 23004AN  25270.49929486 -.00000128  00000+0 -39741-3 0  9999
2 55176  87.8788  73.3901 0002141 108.1708 251.9653 13.11420023131438
ONEWEB-0716             
1 55177U 23004AP  25269.92632796  .00000027  00000+0  37373-4 0  9997
2 55177  87.9064  58.2337 0001470  95.4126 264.7174 13.17649418132919
ONEWEB-0717             
1 55178U 23004AQ  25270.36506583  .00000105  00000+0  23739-3 0  9999
2 55178  87.9076  58.1105 0002405  88.9584 271.1823 13.17650088133020
ONEWEB-0719             
1 55179U 23004AR  25270.37520197  .00000057  00000+0  11417-3 0  9994
2 55179  87.9075  58.0912 0001526  87.8351 272.2955 13.17648167132974
ONEWEB-0530             
1 55796U 23029A   25270.59317488 -.00000007  00000+0 -48827-4 0  9990
2 55796  87.9252 326.8467 0002186  85.7407 274.3976 13.20772671126486
ONEWEB-0534             
1 55797U 23029B   25270.20175756  .00000063  00000+0  12361-3 0  9992
2 55797  87.9245 326.9277 0001738  96.4546 263.6785 13.20771875126433
ONEWEB-0556             
1 55798U 23029C   25270.58687165  .00000032  00000+0  47415-4 0  9991
2 55798  87.9251 326.8472 0001583  72.5048 287.6258 13.20772472126487
ONEWEB-0562             
1 55799U 23029D   25270.19546109  .00000102  00000+0  21920-3 0  9991
2 55799  87.9243 326.9110 0002226  72.7409 287.3968 13.20770580126435
