[{"OBJECT_NAME":"ONEWEB-0627","OBJECT_ID":"2023-004AE","EPOCH":"2025-09-27T09:34:18.445440","MEAN_MOTION":13.17650044,"ECCENTRICITY":0.00021416,"INCLINATION":87.9064,"RA_OF_ASC_NODE":58.15,"ARG_OF_PERICENTER":84.5101,"MEAN_ANOMALY":275.6274,"EPHEMERIS_TYPE":0,"CLASSIFICATION_TYPE":"U","NORAD_CAT_ID":55168,"ELEMENT_SET_NO":999,"REV_AT_EPOCH":13297,"BSTAR":0.00011087514,"MEAN_MOTION_DOT":5.6e-7,"MEAN_MOTION_DDOT":0},{"OBJECT_NAME":"ONEWEB-0628","OBJECT_ID":"2023-004AF","EPOCH":"2025-09-26T22:16:53.580288","MEAN_MOTION":13.12442999,"ECCENTRICITY":0.00021282,"INCLINATION":87.8928,"RA_OF_ASC_NODE":42.9461,"ARG_OF_PERICENTER":82.4627,"MEAN_ANOMALY":277.6744,"EPHEMERIS_TYPE":0,"CLASSIFICATION_TYPE":"U","NORAD_CAT_ID":55169,"ELEMENT_SET_NO":999,"REV_AT_EPOCH":13350,"BSTAR":-0.00069121059,"MEAN_MOTION_DOT":-2.36e-6,"MEAN_MOTION_DDOT":0},{"OBJECT_NAME":"ONEWEB-0629","OBJECT_ID":"2023-004AG","EPOCH":"2025-09-27T08:59:05.048736","MEAN_MOTION":13.17649322,"ECCENTRICITY":0.00015893,"INCLINATION":87.9072,"RA_OF_ASC_NODE":58.1496,"ARG_OF_PERICENTER":82.1445,"MEAN_ANOMALY":277.9867,"EPHEMERIS_TYPE":0,"CLASSIFICATION_TYPE":"U","NORAD_CAT_ID":55170,"ELEMENT_SET_NO":999,"REV_AT_EPOCH":13297,"BSTAR":0.00011236995,"MEAN_MOTION_DOT":5.7e-7,"MEAN_MOTION_DDOT":0},{"OBJECT_NAME":"ONEWEB-0631","OBJECT_ID":"2023-004AH","EPOCH":"2025-09-27T06:21:31.118400","MEAN_MOTION":13.18685625,"ECCENTRICITY":0.00022203,"INCLINATION":87.9214,"RA_OF_ASC_NODE":27.6395,"ARG_OF_PERICENTER":108.7157,"MEAN_ANOMALY":251.4216,"EPHEMERIS_TYPE":0,"CLASSIFICATION_TYPE":"U","NORAD_CAT_ID":55171,"ELEMENT_SET_NO":999,"REV_AT_EPOCH":13502,"BSTAR":0.00022394047,"MEAN_MOTION_DOT":1.01e-6,"MEAN_MOTION_DDOT":0},{"OBJECT_NAME":"ONEWEB-0709","OBJECT_ID":"2023-004AJ","EPOCH":"2025-09-27T12:20:58.524000","MEAN_MOTION":13.11417804,"ECCENTRICITY":0.00019176,"INCLINATION":87.879,"RA_OF_ASC_NODE":73.4124,"ARG_OF_PERICENTER":120.7751,"MEAN_ANOMALY":239.3566,"EPHEMERIS_TYPE":0,"CLASSIFICATION_TYPE":"U","NORAD_CAT_ID":55172,"ELEMENT_SET_NO":999,"REV_AT_EPOCH":13144,"BSTAR":0.0014746133,"MEAN_MOTION_DOT":5.35e-6,"MEAN_MOTION_DDOT":0},{"OBJECT_NAME":"ONEWEB-0710","OBJECT_ID":"2023-004AK","EPOCH":"2025-09-27T09:19:43.904640","MEAN_MOTION":13.17652338,"ECCENTRICITY":0.00019086,"INCLINATION":87.9065,"RA_OF_ASC_NODE":58.1424,"ARG_OF_PERICENTER":89.5261,"MEAN_ANOMALY":270.6089,"EPHEMERIS_TYPE":0,"CLASSIFICATION_TYPE":"U","NORAD_CAT_ID":55173,"ELEMENT_SET_NO":999,"REV_AT_EPOCH":13297,"BSTAR":-0.0016842755,"MEAN_MOTION_DOT":-6.41e-6,"MEAN_MOTION_DDOT":0},{"OBJECT_NAME":"ONEWEB-0711","OBJECT_ID":"2023-004AL","EPOCH":"2025-09-27T11:39:26.849088","MEAN_MOTION":13.11417836,"ECCENTRICITY":0.00023594,"INCLINATION":87.8796,"RA_OF_ASC_NODE":73.3865,"ARG_OF_PERICENTER":81.3572,"MEAN_ANOMALY":278.7823,"EPHEMERIS_TYPE":0,"CLASSIFICATION_TYPE":"U","NORAD_CAT_ID":55174,"ELEMENT_SET_NO":999,"REV_AT_EPOCH":13140,"BSTAR":-0.0012857744,"MEAN_MOTION_DOT":-4.43e-6,"MEAN_MOTION_DDOT":0},{"OBJECT_NAME":"ONEWEB-0713","OBJECT_ID":"2023-004AM","EPOCH":"2025-09-26T17:47:38.082336","MEAN_MOTION":13.11420159,"ECCENTRICITY":0.00019166,"INCLINATION":87.8788,"RA_OF_ASC_NODE":73.5413,"ARG_OF_PERICENTER":87.1836,"MEAN_ANOMALY":272.9511,"EPHEMERIS_TYPE":0,"CLASSIFICATION_TYPE":"U","NORAD_CAT_ID":55175,"ELEMENT_SET_NO":999,"REV_AT_EPOCH":13129,"BSTAR":0.0008562894,"MEAN_MOTION_DOT":3.16e-6,"MEAN_MOTION_DDOT":0},{"OBJECT_NAME":"ONEWEB-0715","OBJECT_ID":"2023-004AN","EPOCH":"2025-09-27T11:58:59.075904","MEAN_MOTION":13.11420023,"ECCENTRICITY":0.00021418,"INCLINATION":87.8788,"RA_OF_ASC_NODE":73.3901,"ARG_OF_PERICENTER":108.1708,"MEAN_ANOMALY":251.9653,"EPHEMERIS_TYPE":0,"CLASSIFICATION_TYPE":"U","NORAD_CAT_ID":55176,"ELEMENT_SET_NO":999,"REV_AT_EPOCH":13143,"BSTAR":-0.00039741102,"MEAN_MOTION_DOT":-1.28e-6,"MEAN_MOTION_DDOT":0},{"OBJECT_NAME":"ONEWEB-0716","OBJECT_ID":"2023-004AP","EPOCH":"2025-09-26T22:13:54.735744","MEAN_MOTION":13.17649418,"ECCENTRICITY":0.00014705,"INCLINATION":87.9064,"RA_OF_ASC_NODE":58.2337,"ARG_OF_PERICENTER":95.4126,"MEAN_ANOMALY":264.7174,"EPHEMERIS_TYPE":0,"CLASSIFICATION_TYPE":"U","NORAD_CAT_ID":55177,"ELEMENT_SET_NO":999,"REV_AT_EPOCH":13291,"BSTAR":3.7373197e-5,"MEAN_MOTION_DOT":2.7e-7,"MEAN_MOTION_DDOT":0},{"OBJECT_NAME":"ONEWEB-0717","OBJECT_ID":"2023-004AQ","EPOCH":"2025-09-27T08:45:41.687712","MEAN_MOTION":13.17650088,"ECCENTRICITY":0.00024056,"INCLINATION":87.9076,"RA_OF_ASC_NODE":58.1105,"ARG_OF_PERICENTER":88.9584,"MEAN_ANOMALY":271.1823,"EPHEMERIS_TYPE":0,"CLASSIFICATION_TYPE":"U","NORAD_CAT_ID":55178,"ELEMENT_SET_NO":999,"REV_AT_EPOCH":13302,"BSTAR":0.00023738676,"MEAN_MOTION_DOT":1.05e-6,"MEAN_MOTION_DDOT":0},{"OBJECT_NAME":"ONEWEB-0719","OBJECT_ID":"2023-004AR","EPOCH":"2025-09-27T09:00:17.450208","MEAN_MOTION":13.17648167,"ECCENTRICITY":0.0001526,"INCLINATION":87.9075,"RA_OF_ASC_NODE":58.0912,"ARG_OF_PERICENTER":87.8351,"MEAN_ANOMALY":272.2955,"EPHEMERIS_TYPE":0,"CLASSIFICATION_TYPE":"U","NORAD_CAT_ID":55179,"ELEMENT_SET_NO":999,"REV_AT_EPOCH":13297,"BSTAR":0.00011416515,"MEAN_MOTION_DOT":5.7e-7,"MEAN_MOTION_DDOT":0},{"OBJECT_NAME":"ONEWEB-0530","OBJECT_ID":"2023-029A","EPOCH":"2025-09-27T14:14:10.309632","MEAN_MOTION":13.20772671,"ECCENTRICITY":0.00021864,"INCLINATION":87.9252,"RA_OF_ASC_NODE":326.8467,"ARG_OF_PERICENTER":85.7407,"MEAN_ANOMALY":274.3976,"EPHEMERIS_TYPE":0,"CLASSIFICATION_TYPE":"U","NORAD_CAT_ID":55796,"ELEMENT_SET_NO":999,"REV_AT_EPOCH":12648,"BSTAR":-4.8827385e-5,"MEAN_MOTION_DOT":-7.0e-8,"MEAN_MOTION_DDOT":0},{"OBJECT_NAME":"ONEWEB-0534","OBJECT_ID":"2023-029B","EPOCH":"2025-09-27T04:50:31.853184","MEAN_MOTION":13.20771875,"ECCENTRICITY":0.0001738,"INCLINATION":87.9245,"RA_OF_ASC_NODE":326.9277,"ARG_OF_PERICENTER":96.4546,"MEAN_ANOMALY":263.6785,"EPHEMERIS_TYPE":0,"CLASSIFICATION_TYPE":"U","NORAD_CAT_ID":55797,"ELEMENT_SET_NO":999,"REV_AT_EPOCH":12643,"BSTAR":0.00012361156,"MEAN_MOTION_DOT":6.3e-7,"MEAN_MOTION_DDOT":0},{"OBJECT_NAME":"ONEWEB-0556","OBJECT_ID":"2023-029C","EPOCH":"2025-09-27T14:05:05.710560","MEAN_MOTION":13.20772472,"ECCENTRICITY":0.00015837,"INCLINATION":87.9251,"RA_OF_ASC_NODE":326.8472,"ARG_OF_PERICENTER":72.5048,"MEAN_ANOMALY":287.6258,"EPHEMERIS_TYPE":0,"CLASSIFICATION_TYPE":"U","NORAD_CAT_ID":55798,"ELEMENT_SET_NO":999,"REV_AT_EPOCH":12648,"BSTAR":4.7414596e-5,"MEAN_MOTION_DOT":3.2e-7,"MEAN_MOTION_DDOT":0},{"OBJECT_NAME":"ONEWEB-0562","OBJECT_ID":"2023-029D","EPOCH":"2025-09-27T04:41:27.838176","MEAN_MOTION":13.2077058,"ECCENTRICITY":0.00022267,"INCLINATION":87.9243,"RA_OF_ASC_NODE":326.911,"ARG_OF_PERICENTER":72.7409,"MEAN_ANOMALY":287.3968,"EPHEMERIS_TYPE":0,"CLASSIFICATION_TYPE":"U","NORAD_CAT_ID":55799,"ELEMENT_SET_NO":999,"REV_AT_EPOCH":12643,"BSTAR":0.00021920166,"MEAN_MOTION_DOT":1.02e-6,"MEAN_MOTION_DDOT":0}]
